[{"OBJECT_NAME":"STARLINK-34406","OBJECT_ID":"2025-142K","EPOCH":"2026-03-09T22:08:51.692928","MEAN_MOTION":14.98332656,"ECCENTRICITY":0.00028588,"INCLINATION":70.0016,"RA_OF_ASC_NODE":313.9528,"ARG_OF_PERICENTER":253.2136,"MEAN_ANOMALY":106.871,"EPHEMERIS_TYPE":0,"CLASSIFICATION_TYPE":"U","NORAD_CAT_ID":64705,"ELEMENT_SET_NO":999,"REV_AT_EPOCH":3963,"BSTAR":0.00047036682,"MEAN_MOTION_DOT":5.524e-5,"MEAN_MOTION_DDOT":0},{"OBJECT_NAME":"PSLV DEB","OBJECT_ID":"2001-049CS","EPOCH":"2026-03-09T17:28:51.612960","MEAN_MOTION":14.96014952,"ECCENTRICITY":0.00345383,"INCLINATION":98.0485,"RA_OF_ASC_NODE":147.0031,"ARG_OF_PERICENTER":251.2293,"MEAN_ANOMALY":231.4093,"EPHEMERIS_TYPE":0,"CLASSIFICATION_TYPE":"U","NORAD_CAT_ID":27146,"ELEMENT_SET_NO":999,"REV_AT_EPOCH":30162,"BSTAR":0.00055338741,"MEAN_MOTION_DOT":6.222e-5,"MEAN_MOTION_DDOT":0}]
